LANDSAT 9               
1 49260U 21088A   23356.18003701  .00000761  00000+0  17891-3 0  9991
2 49260  98.2104  63.6235 0001255  86.4541 273.6801 14.57110382118776
